NORAD_CAT_ID,OBJECT_NAME,OBJECT_TYPE,EPOCH,MEAN_MOTION,ECCENTRICITY,INCLINATION,RA_OF_ASC_NODE,ARG_OF_PERICENTER,MEAN_ANOMALY,BSTAR,MEAN_MOTION_DOT,MEAN_MOTION_DDOT,TLE_LINE0,TLE_LINE1,TLE_LINE2,SEMIMAJOR_AXIS,PERIOD,APOGEE,PERIGEE,DECAYED
53786.0,STARLINK-4631,PAYLOAD,2023-10-22 04:05:47,15.08849559,0.0001595,53.2172,207.3028,93.0007,267.1168,5.0051e-05,5.09e-06,0.0,0 STARLINK-4631,1 53786U 22111P   23295.17068525  .00000509  00000-0  50051-4 0  9990,2 53786  53.2172 207.3028 0001595  93.0007 267.1168 15.08849559 61767,6917.851,95.437,540.82,538.613,0.0
53786.0,STARLINK-4631,PAYLOAD,2023-10-22 21:35:02,15.0883645,0.0001725,53.2187,204.0281,105.169,254.9493,-5.1222e-05,-1.103e-05,0.0,0 STARLINK-4631,1 53786U 22111P   23295.89933794 -.00001103  00000-0 -51222-4 0  9992,2 53786  53.2187 204.0281 0001725 105.1690 254.9493 15.08836450 62689,6917.891,95.438,540.95,538.563,0.0
53786.0,STARLINK-4631,PAYLOAD,2023-10-23 00:45:49,15.08831835,0.0001504,53.217,203.4385,85.5033,274.6131,-2.3919e-05,-6.69e-06,0.0,0 STARLINK-4631,1 53786U 22111P   23296.03182114 -.00000669  00000-0 -23919-4 0  9999,2 53786  53.2170 203.4385 0001504  85.5033 274.6131 15.08831835 61898,6917.905,95.438,540.811,538.73,0.0
53786.0,STARLINK-4631,PAYLOAD,2023-10-23 21:25:50,15.08837704,0.0001557,53.2173,199.5725,86.4195,273.6975,-4.5505e-05,-1.012e-05,0.0,0 STARLINK-4631,1 53786U 22111P   23296.89294079 -.00001012  00000-0 -45505-4 0  9995,2 53786  53.2173 199.5725 0001557  86.4195 273.6975 15.08837704 62832,6917.887,95.438,540.83,538.675,0.0
53786.0,STARLINK-4631,PAYLOAD,2023-10-24 00:36:36,15.08840236,0.0001531,53.2172,198.9784,86.2424,273.8743,-2.0759e-05,-6.18e-06,0.0,0 STARLINK-4631,1 53786U 22111P   23297.02541848 -.00000618  00000-0 -20759-4 0  9995,2 53786  53.2172 198.9784 0001531  86.2424 273.8743 15.08840236 62046,6917.88,95.438,540.804,538.686,0.0
53786.0,STARLINK-4631,PAYLOAD,2023-10-24 10:08:54,15.08842329,0.0001552,53.2172,197.1943,85.2921,274.8249,-3.5653e-05,-8.55e-06,0.0,0 STARLINK-4631,1 53786U 22111P   23297.42285769 -.00000855  00000-0 -35653-4 0  9998,2 53786  53.2172 197.1943 0001552  85.2921 274.8249 15.08842329 62911,6917.873,95.437,540.812,538.665,0.0
53786.0,STARLINK-4631,PAYLOAD,2023-10-25 21:07:24,15.08836929,0.0001599,53.217,190.6517,79.7208,280.3964,2.4667e-06,-2.49e-06,0.0,0 STARLINK-4631,1 53786U 22111P   23298.88014399 -.00000249  00000-0  24667-5 0  9998,2 53786  53.2170 190.6517 0001599  79.7208 280.3964 15.08836929 62321,6917.89,95.438,540.861,538.649,0.0
53786.0,STARLINK-4631,PAYLOAD,2023-10-25 22:42:47,15.08837271,0.0001601,53.217,190.3544,79.5356,280.5817,4.947e-06,-2.09e-06,0.0,0 STARLINK-4631,1 53786U 22111P   23298.94638380 -.00000209  00000-0  49470-5 0  9992,2 53786  53.2170 190.3544 0001601  79.5356 280.5817 15.08837271 63145,6917.889,95.438,540.861,538.646,0.0
53786.0,STARLINK-4631,PAYLOAD,2023-10-26 01:53:33,15.08839619,0.0001599,53.2167,189.7599,82.385,277.7323,2.5034e-05,1.1e-06,0.0,0 STARLINK-4631,1 53786U 22111P   23299.07886164  .00000110  00000-0  25034-4 0  9991,2 53786  53.2167 189.7599 0001599  82.3850 277.7323 15.08839619 63160,6917.882,95.438,540.853,538.64,0.0
53786.0,STARLINK-4631,PAYLOAD,2023-10-26 22:33:34,15.08841516,0.0001718,53.2174,185.8933,81.3725,278.7462,2.0604e-05,4e-07,0.0,0 STARLINK-4631,1 53786U 22111P   23299.93998059  .00000040  00000-0  20604-4 0  9993,2 53786  53.2174 185.8933 0001718  81.3725 278.7462 15.08841516 63298,6917.876,95.437,540.929,538.552,0.0
53786.0,STARLINK-4631,PAYLOAD,2023-10-27 01:44:20,15.08842508,0.0001732,53.2173,185.2992,82.2005,277.9183,2.8673e-05,1.68e-06,0.0,0 STARLINK-4631,1 53786U 22111P   23300.07245959  .00000168  00000-0  28673-4 0  9990,2 53786  53.2173 185.2992 0001732  82.2005 277.9183 15.08842508 62509,6917.873,95.437,540.936,538.54,0.0
53786.0,STARLINK-4631,PAYLOAD,2023-10-27 09:41:16,15.08840973,0.0001722,53.2166,183.8137,82.3772,277.7416,2.8611e-05,1.67e-06,0.0,0 STARLINK-4631,1 53786U 22111P   23300.40366042  .00000167  00000-0  28611-4 0  9995,2 53786  53.2166 183.8137 0001722  82.3772 277.7416 15.08840973 63363,6917.877,95.437,540.934,538.551,0.0
53786.0,STARLINK-4631,PAYLOAD,2023-10-27 22:24:21,15.08839919,0.0001636,53.2163,181.434,86.1298,273.9882,2.8623e-05,1.68e-06,0.0,0 STARLINK-4631,1 53786U 22111P   23300.93358070  .00000168  00000-0  28623-4 0  9999,2 53786  53.2163 181.4340 0001636  86.1298 273.9882 15.08839919 63441,6917.881,95.438,540.877,538.614,0.0
53786.0,STARLINK-4631,PAYLOAD,2023-10-28 09:32:03,15.08838851,0.0001669,53.2163,179.3525,85.7524,274.3658,1.4721e-05,-5.4e-07,0.0,0 STARLINK-4631,1 53786U 22111P   23301.39726187 -.00000054  00000-0  14721-4 0  9997,2 53786  53.2163 179.3525 0001669  85.7524 274.3658 15.08838851 62703,6917.884,95.438,540.903,538.594,0.0
53786.0,STARLINK-4631,PAYLOAD,2023-10-28 22:15:08,15.08840301,0.0001648,53.2163,176.9726,89.5155,270.6026,1.4569e-05,-5.6e-07,0.0,0 STARLINK-4631,1 53786U 22111P   23301.92718079 -.00000056  00000-0  14569-4 0  9999,2 53786  53.2163 176.9726 0001648  89.5155 270.6026 15.08840301 63597,6917.879,95.438,540.885,538.604,0.0
53786.0,STARLINK-4631,PAYLOAD,2023-10-29 09:22:50,15.08840749,0.0001648,53.2162,174.891,89.8167,270.3014,2.9203e-05,1.77e-06,0.0,0 STARLINK-4631,1 53786U 22111P   23302.39085990  .00000177  00000-0  29203-4 0  9994,2 53786  53.2162 174.8910 0001648  89.8167 270.3014 15.08840749 63662,6917.878,95.438,540.883,538.603,0.0
53786.0,STARLINK-4631,PAYLOAD,2023-10-29 20:30:32,15.08842326,0.0001645,53.2162,172.8096,89.7048,270.4132,5.2963e-05,5.55e-06,0.0,0 STARLINK-4631,1 53786U 22111P   23302.85453773  .00000555  00000-0  52963-4 0  9992,2 53786  53.2162 172.8096 0001645  89.7048 270.4132 15.08842326 62922,6917.873,95.437,540.876,538.6,0.0
53786.0,STARLINK-4631,PAYLOAD,2023-10-30 21:56:42,15.08833523,0.0001669,53.2161,168.0507,95.5468,264.5714,-1.9302e-05,-5.95e-06,0.0,0 STARLINK-4631,1 53786U 22111P   23303.91438645 -.00000595  00000-0 -19302-4 0  9997,2 53786  53.2161 168.0507 0001669  95.5468 264.5714 15.08833523 63898,6917.9,95.438,540.92,538.611,0.0
53786.0,STARLINK-4631,PAYLOAD,2023-10-31 07:29:01,15.08834564,0.0001643,53.216,166.2674,93.1019,267.0161,-1.1939e-05,-4.78e-06,0.0,0 STARLINK-4631,1 53786U 22111P   23304.31182682 -.00000478  00000-0 -11939-4 0  9997,2 53786  53.2160 166.2674 0001643  93.1019 267.0161 15.08834564 63957,6917.897,95.438,540.899,538.625,0.0
53786.0,STARLINK-4631,PAYLOAD,2023-10-31 21:47:30,15.08836076,0.0001624,53.2163,163.5921,92.8721,267.2457,-1.4782e-05,-5.23e-06,0.0,0 STARLINK-4631,1 53786U 22111P   23304.90798801 -.00000523  00000-0 -14782-4 0  9998,2 53786  53.2163 163.5921 0001624  92.8721 267.2457 15.08836076 64041,6917.892,95.438,540.881,538.634,0.0
53786.0,STARLINK-4631,PAYLOAD,2023-11-01 07:19:48,15.08846149,0.0001591,53.2165,161.808,96.8918,263.2255,-0.00014686,-2.625e-05,0.0,0 STARLINK-4631,1 53786U 22111P   23305.30542592 -.00002625  00000-0 -14686-3 0  9994,2 53786  53.2165 161.8080 0001591  96.8918 263.2255 15.08846149 63295,6917.862,95.437,540.827,538.626,0.0
53786.0,STARLINK-4631,PAYLOAD,2023-11-01 21:38:17,15.08835928,0.0001593,53.2165,159.1321,96.3214,263.7959,6.0289e-05,6.72e-06,0.0,0 STARLINK-4631,1 53786U 22111P   23305.90158871  .00000672  00000-0  60289-4 0  9992,2 53786  53.2165 159.1321 0001593  96.3214 263.7959 15.08835928 64198,6917.893,95.438,540.86,538.656,0.0
53786.0,STARLINK-4631,PAYLOAD,2023-11-02 13:32:08,15.08833554,0.0001591,53.2168,156.1587,94.6772,265.4402,5.6917e-05,6.18e-06,0.0,0 STARLINK-4631,1 53786U 22111P   23306.56399245  .00000618  00000-0  56917-4 0  9990,2 53786  53.2168 156.1587 0001591  94.6772 265.4402 15.08833554 63486,6917.9,95.438,540.866,538.664,0.0
53786.0,STARLINK-4631,PAYLOAD,2023-11-02 21:29:04,15.08836114,0.000159,53.2167,154.6719,94.6004,265.517,4.5729e-05,4.4e-06,0.0,0 STARLINK-4631,1 53786U 22111P   23306.89519215  .00000440  00000-0  45729-4 0  9999,2 53786  53.2167 154.6719 0001590  94.6004 265.5170 15.08836114 64346,6917.892,95.438,540.857,538.657,0.0
53786.0,STARLINK-4631,PAYLOAD,2023-11-03 13:22:55,15.08837887,0.0001572,53.2159,151.6978,92.0792,268.0381,3.8938e-05,3.32e-06,0.0,0 STARLINK-4631,1 53786U 22111P   23307.55759217  .00000332  00000-0  38938-4 0  9995,2 53786  53.2159 151.6978 0001572  92.0792 268.0381 15.08837887 64448,6917.887,95.438,540.839,538.664,0.0
53786.0,STARLINK-4631,PAYLOAD,2023-11-03 19:44:28,15.0884182,0.0001557,53.2163,150.5083,91.7857,268.3314,3.1579e-05,2.15e-06,0.0,0 STARLINK-4631,1 53786U 22111P   23307.82255010  .00000215  00000-0  31579-4 0  9991,2 53786  53.2163 150.5083 0001557  91.7857 268.3314 15.08841820 63674,6917.875,95.437,540.817,538.663,0.0
53786.0,STARLINK-4631,PAYLOAD,2023-11-03 21:19:51,15.08841969,0.0001559,53.2163,150.2109,91.7218,268.3953,3.2359e-05,2.27e-06,0.0,0 STARLINK-4631,1 53786U 22111P   23307.88878991  .00000227  00000-0  32359-4 0  9996,2 53786  53.2163 150.2109 0001559  91.7218 268.3953 15.08841969 64497,6917.874,95.437,540.818,538.661,0.0
53786.0,STARLINK-4631,PAYLOAD,2023-11-04 06:52:10,15.08838801,0.0001555,53.2164,148.4267,90.7186,269.3984,1.5725e-05,-3.8e-07,0.0,0 STARLINK-4631,1 53786U 22111P   23308.28623220 -.00000038  00000-0  15725-4 0  9993,2 53786  53.2164 148.4267 0001555  90.7186 269.3984 15.08838801 64554,6917.884,95.438,540.825,538.673,0.0
53786.0,STARLINK-4631,PAYLOAD,2023-11-04 19:35:15,15.08838383,0.0001549,53.2163,146.0477,91.2468,268.8701,2.9486e-05,1.81e-06,0.0,0 STARLINK-4631,1 53786U 22111P   23308.81615245  .00000181  00000-0  29486-4 0  9997,2 53786  53.2163 146.0477 0001549  91.2468 268.8701 15.08838383 64637,6917.885,95.438,540.822,538.679,0.0
53786.0,STARLINK-4631,PAYLOAD,2023-11-05 06:42:57,15.08841755,0.0001545,53.2163,143.9659,91.5481,268.5688,2.4161e-05,9.7e-07,0.0,0 STARLINK-4631,1 53786U 22111P   23309.27983059  .00000097  00000-0  24161-4 0  9990,2 53786  53.2163 143.9659 0001545  91.5481 268.5688 15.08841755 63894,6917.875,95.437,540.809,538.671,0.0
